start=new Date('2022-06-20T00:00:00.000Z').valueOf();
sats=[{"OBJECT_ID":"2021-041T","SEMIMAJOR_AXIS":"6925.354","MEAN_MOTION":"15.06398124","SITE":"AFETR","PERIAPSIS":"546.051","APOAPSIS":"548.388","NORAD_CAT_ID":"48570","OBJECT_TYPE":"PAYLOAD","EPOCH":"2022-06-19T13:38:58.843968","REV_AT_EPOCH":"6020","DECAY_DATE":null,"PERIOD":"95.592","INCLINATION":"53.0552","REF_FRAME":"TEME","GP_ID":"206446263","BSTAR":"0.00002468400000","EPHEMERIS_TYPE":"0","RCS_SIZE":"LARGE","CENTER_NAME":"EARTH","TLE_LINE2":"2 48570  53.0552 122.9501 0001687  64.3998 295.7165 15.06398124 60209","MEAN_MOTION_DOT":"0.00000086","MEAN_ANOMALY":"295.7165","RA_OF_ASC_NODE":"122.9501","ELEMENT_SET_NO":"999","ARG_OF_PERICENTER":"64.3998","TLE_LINE1":"1 48570U 21041T   22170.56873662  .00000086  00000-0  24684-4 0  9999","FILE":"3497669","MEAN_ELEMENT_THEORY":"SGP4","MEAN_MOTION_DDOT":"0.0000000000000","CLASSIFICATION_TYPE":"U","LAUNCH_DATE":"2021-05-15","ECCENTRICITY":"0.00016870","TIME_SYSTEM":"UTC","OBJECT_NAME":"STARLINK-2220","COUNTRY_CODE":"US"},{"LAUNCH_DATE":"2021-05-15","ECCENTRICITY":"0.00014830","CLASSIFICATION_TYPE":"U","MEAN_MOTION_DDOT":"0.0000000000000","COUNTRY_CODE":"US","OBJECT_NAME":"STARLINK-2221","TIME_SYSTEM":"UTC","ELEMENT_SET_NO":"999","RA_OF_ASC_NODE":"122.9268","MEAN_ELEMENT_THEORY":"SGP4","ARG_OF_PERICENTER":"66.3851","TLE_LINE1":"1 48571U 21041U   22170.57611333  .00001335  00000-0  10854-3 0  9997","FILE":"3497669","INCLINATION":"53.0536","PERIOD":"95.593","DECAY_DATE":null,"MEAN_ANOMALY":"293.7294","MEAN_MOTION_DOT":"0.00001335","RCS_SIZE":"LARGE","EPHEMERIS_TYPE":"0","CENTER_NAME":"EARTH","TLE_LINE2":"2 48571  53.0536 122.9268 0001483  66.3851 293.7294 15.06388316 60210","REF_FRAME":"TEME","GP_ID":"206446511","BSTAR":"0.00010854000000","APOAPSIS":"548.276","NORAD_CAT_ID":"48571","PERIAPSIS":"546.222","SITE":"AFETR","OBJECT_ID":"2021-041U","SEMIMAJOR_AXIS":"6925.384","MEAN_MOTION":"15.06388316","REV_AT_EPOCH":"6021","OBJECT_TYPE":"PAYLOAD","EPOCH":"2022-06-19T13:49:36.191712"},{"RA_OF_ASC_NODE":"122.9376","ELEMENT_SET_NO":"999","FILE":"3497669","ARG_OF_PERICENTER":"72.8901","TLE_LINE1":"1 48572U 21041V   22170.57242041 -.00000350  00000-0 -45783-5 0  9993","MEAN_ELEMENT_THEORY":"SGP4","MEAN_MOTION_DDOT":"0.0000000000000","CLASSIFICATION_TYPE":"U","ECCENTRICITY":"0.00015890","LAUNCH_DATE":"2021-05-15","TIME_SYSTEM":"UTC","OBJECT_NAME":"STARLINK-2222","COUNTRY_CODE":"US","MEAN_MOTION":"15.06396468","OBJECT_ID":"2021-041V","SEMIMAJOR_AXIS":"6925.359","SITE":"AFETR","PERIAPSIS":"546.124","NORAD_CAT_ID":"48572","APOAPSIS":"548.325","EPOCH":"2022-06-19T13:44:17.123424","OBJECT_TYPE":"PAYLOAD","REV_AT_EPOCH":"6021","DECAY_DATE":null,"PERIOD":"95.592","INCLINATION":"53.0549","BSTAR":"-0.00000457830000","REF_FRAME":"TEME","GP_ID":"206447763","CENTER_NAME":"EARTH","TLE_LINE2":"2 48572  53.0549 122.9376 0001589  72.8901 287.2262 15.06396468 60210","EPHEMERIS_TYPE":"0","RCS_SIZE":"LARGE","MEAN_MOTION_DOT":"-0.00000350","MEAN_ANOMALY":"287.2262"},{"MEAN_MOTION":"15.06398256","OBJECT_ID":"2021-041W","SEMIMAJOR_AXIS":"6925.354","SITE":"AFETR","PERIAPSIS":"545.972","APOAPSIS":"548.466","NORAD_CAT_ID":"48573","OBJECT_TYPE":"PAYLOAD","EPOCH":"2022-06-19T13:13:45.572160","REV_AT_EPOCH":"6034","DECAY_DATE":null,"PERIOD":"95.592","INCLINATION":"53.0546","BSTAR":"0.00016399000000","GP_ID":"206415204","REF_FRAME":"TEME","TLE_LINE2":"2 48573  53.0546 113.0168 0001801  61.3383 298.7787 15.06398256 60342","CENTER_NAME":"EARTH","EPHEMERIS_TYPE":"0","RCS_SIZE":"LARGE","MEAN_ANOMALY":"298.7787","MEAN_MOTION_DOT":"0.00002162","RA_OF_ASC_NODE":"113.0168","ELEMENT_SET_NO":"999","FILE":"3497010","TLE_LINE1":"1 48573U 21041W   22170.55122190  .00002162  00000-0  16399-3 0  9994","ARG_OF_PERICENTER":"61.3383","MEAN_ELEMENT_THEORY":"SGP4","MEAN_MOTION_DDOT":"0.0000000000000","CLASSIFICATION_TYPE":"U","LAUNCH_DATE":"2021-05-15","ECCENTRICITY":"0.00018010","TIME_SYSTEM":"UTC","OBJECT_NAME":"STARLINK-2224","COUNTRY_CODE":"US"},{"INCLINATION":"53.0558","PERIOD":"95.593","DECAY_DATE":null,"MEAN_MOTION_DOT":"0.00001589","MEAN_ANOMALY":"297.7688","RCS_SIZE":"LARGE","EPHEMERIS_TYPE":"0","TLE_LINE2":"2 48574  53.0558  83.5459 0002047  62.3509 297.7688 15.06393487 60759","CENTER_NAME":"EARTH","REF_FRAME":"TEME","GP_ID":"206415956","BSTAR":"0.00012559000000","NORAD_CAT_ID":"48574","APOAPSIS":"548.651","PERIAPSIS":"545.816","SITE":"AFETR","SEMIMAJOR_AXIS":"6925.369","OBJECT_ID":"2021-041X","MEAN_MOTION":"15.06393487","REV_AT_EPOCH":"6075","OBJECT_TYPE":"PAYLOAD","EPOCH":"2022-06-19T10:54:27.447840","LAUNCH_DATE":"2021-05-15","ECCENTRICITY":"0.00020470","CLASSIFICATION_TYPE":"U","MEAN_MOTION_DDOT":"0.0000000000000","COUNTRY_CODE":"US","OBJECT_NAME":"STARLINK-2225","TIME_SYSTEM":"UTC","ELEMENT_SET_NO":"999","RA_OF_ASC_NODE":"83.5459","MEAN_ELEMENT_THEORY":"SGP4","ARG_OF_PERICENTER":"62.3509","TLE_LINE1":"1 48574U 21041X   22170.45448435  .00001589  00000-0  12559-3 0  9993","FILE":"3497010"},{"GP_ID":"206447012","REF_FRAME":"TEME","BSTAR":"-0.00028619000000","RCS_SIZE":"LARGE","EPHEMERIS_TYPE":"0","CENTER_NAME":"EARTH","TLE_LINE2":"2 48575  53.0535  71.9225 0001538  61.6994 298.4150 15.06386755 60966","MEAN_ANOMALY":"298.4150","MEAN_MOTION_DOT":"-0.00004540","DECAY_DATE":null,"PERIOD":"95.593","INCLINATION":"53.0535","EPOCH":"2022-06-19T20:50:18.120192","OBJECT_TYPE":"PAYLOAD","REV_AT_EPOCH":"6096","SEMIMAJOR_AXIS":"6925.389","OBJECT_ID":"2021-041Y","MEAN_MOTION":"15.06386755","SITE":"AFETR","PERIAPSIS":"546.189","APOAPSIS":"548.319","NORAD_CAT_ID":"48575","TIME_SYSTEM":"UTC","OBJECT_NAME":"STARLINK-2227","COUNTRY_CODE":"US","MEAN_MOTION_DDOT":"0.0000000000000","CLASSIFICATION_TYPE":"U","LAUNCH_DATE":"2021-05-15","ECCENTRICITY":"0.00015380","TLE_LINE1":"1 48575U 21041Y   22170.86826528 -.00004540  00000-0 -28619-3 0  9998","ARG_OF_PERICENTER":"61.6994","FILE":"3497669","MEAN_ELEMENT_THEORY":"SGP4","RA_OF_ASC_NODE":"71.9225","ELEMENT_SET_NO":"999"},{"MEAN_MOTION_DOT":"-0.00008045","MEAN_ANOMALY":"293.0435","EPHEMERIS_TYPE":"0","RCS_SIZE":"LARGE","TLE_LINE2":"2 48576  53.0605  88.3589 0001846  67.0748 293.0435 15.06430650 60690","CENTER_NAME":"EARTH","GP_ID":"206415455","REF_FRAME":"TEME","BSTAR":"-0.00052132000000","INCLINATION":"53.0605","PERIOD":"95.590","DECAY_DATE":null,"REV_AT_EPOCH":"6069","EPOCH":"2022-06-19T11:17:39.103872","OBJECT_TYPE":"PAYLOAD","NORAD_CAT_ID":"48576","APOAPSIS":"548.398","PERIAPSIS":"545.841","SITE":"AFETR","OBJECT_ID":"2021-041Z","SEMIMAJOR_AXIS":"6925.255","MEAN_MOTION":"15.06430650","COUNTRY_CODE":"US","OBJECT_NAME":"STARLINK-2228","TIME_SYSTEM":"UTC","LAUNCH_DATE":"2021-05-15","ECCENTRICITY":"0.00018460","CLASSIFICATION_TYPE":"U","MEAN_MOTION_DDOT":"0.0000000000000","MEAN_ELEMENT_THEORY":"SGP4","ARG_OF_PERICENTER":"67.0748","TLE_LINE1":"1 48576U 21041Z   22170.47059148 -.00008045  00000-0 -52132-3 0  9993","FILE":"3497010","ELEMENT_SET_NO":"999","RA_OF_ASC_NODE":"88.3589"},{"MEAN_MOTION_DDOT":"0.0000000000000","CLASSIFICATION_TYPE":"U","LAUNCH_DATE":"2021-05-15","ECCENTRICITY":"0.00017290","TIME_SYSTEM":"UTC","OBJECT_NAME":"STARLINK-2231","COUNTRY_CODE":"US","RA_OF_ASC_NODE":"113.0539","ELEMENT_SET_NO":"999","TLE_LINE1":"1 48577U 21041AA  22170.54385522 -.00001610  00000-0 -89221-4 0  9991","ARG_OF_PERICENTER":"62.4566","FILE":"3497010","MEAN_ELEMENT_THEORY":"SGP4","DECAY_DATE":null,"PERIOD":"95.592","INCLINATION":"53.0549","GP_ID":"206415705","REF_FRAME":"TEME","BSTAR":"-0.00008922100000","RCS_SIZE":"LARGE","EPHEMERIS_TYPE":"0","CENTER_NAME":"EARTH","TLE_LINE2":"2 48577  53.0549 113.0539 0001729  62.4566 297.6599 15.06404491 60343","MEAN_MOTION_DOT":"-0.00001610","MEAN_ANOMALY":"297.6599","OBJECT_ID":"2021-041AA","SEMIMAJOR_AXIS":"6925.335","MEAN_MOTION":"15.06404491","SITE":"AFETR","PERIAPSIS":"546.002","NORAD_CAT_ID":"48577","APOAPSIS":"548.397","EPOCH":"2022-06-19T13:03:09.091008","OBJECT_TYPE":"PAYLOAD","REV_AT_EPOCH":"6034"},{"RA_OF_ASC_NODE":"113.4418","ELEMENT_SET_NO":"999","FILE":"3497669","ARG_OF_PERICENTER":"65.7962","TLE_LINE1":"1 48578U 21041AB  22170.57340800  .00002738  00000-0  20267-3 0  9999","MEAN_ELEMENT_THEORY":"SGP4","MEAN_MOTION_DDOT":"0.0000000000000","CLASSIFICATION_TYPE":"U","LAUNCH_DATE":"2021-05-15","ECCENTRICITY":"0.00016150","TIME_SYSTEM":"UTC","OBJECT_NAME":"STARLINK-2232","COUNTRY_CODE":"US","MEAN_MOTION":"15.06397124","SEMIMAJOR_AXIS":"6925.357","OBJECT_ID":"2021-041AB","SITE":"AFETR","PERIAPSIS":"546.104","APOAPSIS":"548.341","NORAD_CAT_ID":"48578","OBJECT_TYPE":"PAYLOAD","EPOCH":"2022-06-19T13:45:42.451200","REV_AT_EPOCH":"6034","DECAY_DATE":null,"PERIOD":"95.592","INCLINATION":"53.0550","BSTAR":"0.00020267000000","REF_FRAME":"TEME","GP_ID":"206446264","CENTER_NAME":"EARTH","TLE_LINE2":"2 48578  53.0550 113.4418 0001615  65.7962 294.3196 15.06397124 60347","RCS_SIZE":"LARGE","EPHEMERIS_TYPE":"0","MEAN_MOTION_DOT":"0.00002738","MEAN_ANOMALY":"294.3196"},{"COUNTRY_CODE":"US","OBJECT_NAME":"STARLINK-2233","TIME_SYSTEM":"UTC","ECCENTRICITY":"0.00017530","LAUNCH_DATE":"2021-05-15","CLASSIFICATION_TYPE":"U","MEAN_MOTION_DDOT":"0.0000000000000","MEAN_ELEMENT_THEORY":"SGP4","FILE":"3497669","ARG_OF_PERICENTER":"58.1541","TLE_LINE1":"1 48579U 21041AC  22170.86453296 -.00000636  00000-0 -23829-4 0  9991","ELEMENT_SET_NO":"999","RA_OF_ASC_NODE":"111.6270","MEAN_MOTION_DOT":"-0.00000636","MEAN_ANOMALY":"301.9618","CENTER_NAME":"EARTH","TLE_LINE2":"2 48579  53.0532 111.6270 0001753  58.1541 301.9618 15.06393168 60399","EPHEMERIS_TYPE":"0","RCS_SIZE":"LARGE","BSTAR":"-0.00002382900000","GP_ID":"206446512","REF_FRAME":"TEME","INCLINATION":"53.0532","PERIOD":"95.593","DECAY_DATE":null,"REV_AT_EPOCH":"6039","OBJECT_TYPE":"PAYLOAD","EPOCH":"2022-06-19T20:44:55.647744","APOAPSIS":"548.449","NORAD_CAT_ID":"48579","PERIAPSIS":"546.020","SITE":"AFETR","MEAN_MOTION":"15.06393168","SEMIMAJOR_AXIS":"6925.369","OBJECT_ID":"2021-041AC"}];
